{
  "type": "FeatureCollection",
  "features": [
    {
      "type": "Feature",
      "properties": {
        "norad_id": 35442,
        "name": "COSMOS 2251 DEB",
        "group": "cosmos-2251-debris",
        "lat": -4.341968481814275,
        "lon": -76.12515733057597,
        "alt_km": 618.7187503194709,
        "timestamp": "2025-12-10T23:33:13.213996+00:00",
        "meta_object_name": "COSMOS 2251 DEB",
        "meta_object_id": "1993-036AKL",
        "meta_epoch": "2025-12-09T14:22:23.975040",
        "meta_mean_motion": 14.84229139,
        "meta_eccentricity": 0.0003867,
        "meta_inclination": 74.0279,
        "meta_ra_of_asc_node": 105.3704,
        "meta_arg_of_pericenter": 102.501,
        "meta_mean_anomaly": 257.6601,
        "meta_ephemeris_type": 0,
        "meta_classification_type": "U",
        "meta_norad_cat_id": 35442,
        "meta_element_set_no": 999,
        "meta_rev_at_epoch": 87306,
        "meta_bstar": 0.0036554,
        "meta_mean_motion_dot": 0.00030716,
        "meta_mean_motion_ddot": 0,
        "tle_line1": "1 35442U 93036AKL 25343.59888860  .00030716  00000+0  36554-2 0  9999",
        "tle_line2": "2 35442  74.0279 105.3704 0003867 102.5010 257.6601 14.84229139873066"
      },
      "geometry": {
        "type": "Point",
        "coordinates": [
          -76.12515733057597,
          -4.341968481814275
        ]
      }
    },
    {
      "type": "Feature",
      "properties": {
        "norad_id": 35443,
        "name": "COSMOS 2251 DEB",
        "group": "cosmos-2251-debris",
        "lat": 37.65254458398372,
        "lon": 142.3613484667309,
        "alt_km": 528.0279521861166,
        "timestamp": "2025-12-10T23:33:13.214005+00:00",
        "meta_object_name": "COSMOS 2251 DEB",
        "meta_object_id": "1993-036AKM",
        "meta_epoch": "2025-12-08T06:44:44.274336",
        "meta_mean_motion": 14.96147372,
        "meta_eccentricity": 0.00733753,
        "meta_inclination": 73.988,
        "meta_ra_of_asc_node": 340.6328,
        "meta_arg_of_pericenter": 123.8306,
        "meta_mean_anomaly": 236.9892,
        "meta_ephemeris_type": 0,
        "meta_classification_type": "U",
        "meta_norad_cat_id": 35443,
        "meta_element_set_no": 999,
        "meta_rev_at_epoch": 86811,
        "meta_bstar": 0.0035457848,
        "meta_mean_motion_dot": 0.00042371,
        "meta_mean_motion_ddot": 0,
        "tle_line1": "1 35443U 93036AKM 25342.28106799  .00042371  00000+0  35458-2 0  9991",
        "tle_line2": "2 35443  73.9880 340.6328 0073375 123.8306 236.9892 14.96147372868117"
      },
      "geometry": {
        "type": "Point",
        "coordinates": [
          142.3613484667309,
          37.65254458398372
        ]
      }
    },
    {
      "type": "Feature",
      "properties": {
        "norad_id": 35445,
        "name": "COSMOS 2251 DEB",
        "group": "cosmos-2251-debris",
        "lat": 49.1833773512414,
        "lon": -37.288288078473684,
        "alt_km": 596.415257231256,
        "timestamp": "2025-12-10T23:33:13.214014+00:00",
        "meta_object_name": "COSMOS 2251 DEB",
        "meta_object_id": "1993-036AKP",
        "meta_epoch": "2025-12-09T14:24:43.017696",
        "meta_mean_motion": 14.5903749,
        "meta_eccentricity": 0.01436968,
        "meta_inclination": 74.0376,
        "meta_ra_of_asc_node": 305.9887,
        "meta_arg_of_pericenter": 33.7492,
        "meta_mean_anomaly": 327.2717,
        "meta_ephemeris_type": 0,
        "meta_classification_type": "U",
        "meta_norad_cat_id": 35445,
        "meta_element_set_no": 999,
        "meta_rev_at_epoch": 87283,
        "meta_bstar": 0.0029213682,
        "meta_mean_motion_dot": 0.00015858,
        "meta_mean_motion_ddot": 0,
        "tle_line1": "1 35445U 93036AKP 25343.60049789  .00015858  00000+0  29214-2 0  9998",
        "tle_line2": "2 35445  74.0376 305.9887 0143696  33.7492 327.2717 14.59037490872836"
      },
      "geometry": {
        "type": "Point",
        "coordinates": [
          -37.288288078473684,
          49.1833773512414
        ]
      }
    },
    {
      "type": "Feature",
      "properties": {
        "norad_id": 35446,
        "name": "COSMOS 2251 DEB",
        "group": "cosmos-2251-debris",
        "lat": 59.254977109174554,
        "lon": 112.76590606433632,
        "alt_km": 661.7698022339882,
        "timestamp": "2025-12-10T23:33:13.214023+00:00",
        "meta_object_name": "COSMOS 2251 DEB",
        "meta_object_id": "1993-036AKQ",
        "meta_epoch": "2025-12-05T17:34:52.262112",
        "meta_mean_motion": 14.54618421,
        "meta_eccentricity": 0.00744002,
        "meta_inclination": 74.0466,
        "meta_ra_of_asc_node": 331.4309,
        "meta_arg_of_pericenter": 91.6694,
        "meta_mean_anomaly": 269.2992,
        "meta_ephemeris_type": 0,
        "meta_classification_type": "U",
        "meta_norad_cat_id": 35446,
        "meta_element_set_no": 999,
        "meta_rev_at_epoch": 87906,
        "meta_bstar": 0.00018901942,
        "meta_mean_motion_dot": 8.08e-06,
        "meta_mean_motion_ddot": 0,
        "tle_line1": "1 35446U 93036AKQ 25339.73254933  .00000808  00000+0  18902-3 0  9999",
        "tle_line2": "2 35446  74.0466 331.4309 0074400  91.6694 269.2992 14.54618421879069"
      },
      "geometry": {
        "type": "Point",
        "coordinates": [
          112.76590606433632,
          59.254977109174554
        ]
      }
    },
    {
      "type": "Feature",
      "properties": {
        "norad_id": 35448,
        "name": "COSMOS 2251 DEB",
        "group": "cosmos-2251-debris",
        "lat": -21.850234436128666,
        "lon": 86.2136478406071,
        "alt_km": 713.2535480755378,
        "timestamp": "2025-12-10T23:33:13.214033+00:00",
        "meta_object_name": "COSMOS 2251 DEB",
        "meta_object_id": "1993-036AKS",
        "meta_epoch": "2025-12-10T08:47:56.216832",
        "meta_mean_motion": 14.54228098,
        "meta_eccentricity": 0.00112894,
        "meta_inclination": 73.9047,
        "meta_ra_of_asc_node": 94.0334,
        "meta_arg_of_pericenter": 275.0476,
        "meta_mean_anomaly": 84.9397,
        "meta_ephemeris_type": 0,
        "meta_classification_type": "U",
        "meta_norad_cat_id": 35448,
        "meta_element_set_no": 999,
        "meta_rev_at_epoch": 87300,
        "meta_bstar": 0.0017680257,
        "meta_mean_motion_dot": 7.475e-05,
        "meta_mean_motion_ddot": 0,
        "tle_line1": "1 35448U 93036AKS 25344.36662288  .00007475  00000+0  17680-2 0  9990",
        "tle_line2": "2 35448  73.9047  94.0334 0011289 275.0476  84.9397 14.54228098873002"
      },
      "geometry": {
        "type": "Point",
        "coordinates": [
          86.2136478406071,
          -21.850234436128666
        ]
      }
    },
    {
      "type": "Feature",
      "properties": {
        "norad_id": 35451,
        "name": "COSMOS 2251 DEB",
        "group": "cosmos-2251-debris",
        "lat": -23.998166544037957,
        "lon": -66.15980803748559,
        "alt_km": 488.8679010209453,
        "timestamp": "2025-12-10T23:33:13.214042+00:00",
        "meta_object_name": "COSMOS 2251 DEB",
        "meta_object_id": "1993-036AKV",
        "meta_epoch": "2025-12-09T18:30:37.952640",
        "meta_mean_motion": 15.35105788,
        "meta_eccentricity": 0.0040667,
        "meta_inclination": 73.9316,
        "meta_ra_of_asc_node": 109.079,
        "meta_arg_of_pericenter": 355.9338,
        "meta_mean_anomaly": 4.153,
        "meta_ephemeris_type": 0,
        "meta_classification_type": "U",
        "meta_norad_cat_id": 35451,
        "meta_element_set_no": 999,
        "meta_rev_at_epoch": 67360,
        "meta_bstar": 0.0019616802,
        "meta_mean_motion_dot": 0.00069256,
        "meta_mean_motion_ddot": 0,
        "tle_line1": "1 35451U 93036AKV 25343.77127260  .00069256  00000+0  19617-2 0  9991",
        "tle_line2": "2 35451  73.9316 109.0790 0040667 355.9338   4.1530 15.35105788673602"
      },
      "geometry": {
        "type": "Point",
        "coordinates": [
          -66.15980803748559,
          -23.998166544037957
        ]
      }
    },
    {
      "type": "Feature",
      "properties": {
        "norad_id": 35453,
        "name": "COSMOS 2251 DEB",
        "group": "cosmos-2251-debris",
        "lat": 44.860082587233286,
        "lon": -172.95427554290046,
        "alt_km": 717.0897595814358,
        "timestamp": "2025-12-10T23:33:13.214051+00:00",
        "meta_object_name": "COSMOS 2251 DEB",
        "meta_object_id": "1993-036AKX",
        "meta_epoch": "2025-12-02T12:53:58.122528",
        "meta_mean_motion": 14.3790654,
        "meta_eccentricity": 0.00680216,
        "meta_inclination": 74.0102,
        "meta_ra_of_asc_node": 39.1945,
        "meta_arg_of_pericenter": 175.6131,
        "meta_mean_anomaly": 184.5634,
        "meta_ephemeris_type": 0,
        "meta_classification_type": "U",
        "meta_norad_cat_id": 35453,
        "meta_element_set_no": 999,
        "meta_rev_at_epoch": 86072,
        "meta_bstar": 0.00098540606,
        "meta_mean_motion_dot": 3.03e-05,
        "meta_mean_motion_ddot": 0,
        "tle_line1": "1 35453U 93036AKX 25336.53747827  .00003030  00000+0  98541-3 0  9998",
        "tle_line2": "2 35453  74.0102  39.1945 0068021 175.6131 184.5634 14.37906540860721"
      },
      "geometry": {
        "type": "Point",
        "coordinates": [
          -172.95427554290046,
          44.860082587233286
        ]
      }
    }
  ]
}